P0-00 FIXTURE LEO ISS
1 25544U 98067A   26201.51782528  .00016717  00000+0  10270-3 0  9993
2 25544  51.6392 339.0967 0004272  82.5714 277.5709 15.50136786 12346
P0-00 FIXTURE LEO A01
1 30001U 98067A   26201.51782528  .00016717  00000+0  10270-3 0  9997
2 30001  51.6392 280.0000 0004272  82.5714   5.0000 15.50136786 12341
P0-00 FIXTURE LEO A02
1 30002U 98067A   26201.51782528  .00016717  00000+0  10270-3 0  9998
2 30002  51.6392 275.0000 0004272  82.5714   5.0000 15.50136786 12346
P0-00 FIXTURE LEO A03
1 30003U 98067A   26201.51782528  .00016717  00000+0  10270-3 0  9999
2 30003  51.6392 280.0000 0004272  82.5714   0.0000 15.50136786 12348
P0-00 FIXTURE LEO A04
1 30004U 98067A   26201.51782528  .00016717  00000+0  10270-3 0  9990
2 30004  51.6392 275.0000 0004272  82.5714   0.0000 15.50136786 12343
P0-00 FIXTURE LEO A05
1 30005U 98067A   26201.51782528  .00016717  00000+0  10270-3 0  9991
2 30005  51.6392 270.0000 0004272  82.5714  10.0000 15.50136786 12340
P0-00 FIXTURE LEO A06
1 30006U 98067A   26201.51782528  .00016717  00000+0  10270-3 0  9992
2 30006  51.6392 280.0000 0004272  82.5714 355.0000 15.50136786 12344
P0-00 FIXTURE LEO A07
1 30007U 98067A   26201.51782528  .00016717  00000+0  10270-3 0  9993
2 30007  51.6392 275.0000 0004272  82.5714 355.0000 15.50136786 12349
P0-00 FIXTURE LEO A08
1 30008U 98067A   26201.51782528  .00016717  00000+0  10270-3 0  9994
2 30008  51.6392 270.0000 0004272  82.5714   5.0000 15.50136786 12347
P0-00 FIXTURE LEO A09
1 30009U 98067A   26201.51782528  .00016717  00000+0  10270-3 0  9995
2 30009  51.6392 280.0000 0004272  82.5714 350.0000 15.50136786 12342
P0-00 FIXTURE LEO A10
1 30010U 98067A   26201.51782528  .00016717  00000+0  10270-3 0  9997
2 30010  51.6392 275.0000 0004272  82.5714 350.0000 15.50136786 12348
P0-00 FIXTURE LEO A11
1 30011U 98067A   26201.51782528  .00016717  00000+0  10270-3 0  9998
2 30011  51.6392 285.0000 0004272  82.5714   0.0000 15.50136786 12342
P0-00 FIXTURE LEO A12
1 30012U 98067A   26201.51782528  .00016717  00000+0  10270-3 0  9999
2 30012  51.6392 270.0000 0004272  82.5714   0.0000 15.50136786 12347
P0-00 FIXTURE LEO A13
1 30013U 98067A   26201.51782528  .00016717  00000+0  10270-3 0  9990
2 30013  51.6392 280.0000 0004272  82.5714 345.0000 15.50136786 12341
P0-00 FIXTURE LEO A14
1 30014U 98067A   26201.51782528  .00016717  00000+0  10270-3 0  9991
2 30014  51.6392 285.0000 0004272  82.5714 355.0000 15.50136786 12348
P0-00 FIXTURE LEO A15
1 30015U 98067A   26201.51782528  .00016717  00000+0  10270-3 0  9992
2 30015  51.6392 285.0000 0004272  82.5714 350.0000 15.50136786 12344
P0-00 FIXTURE LEO A16
1 30016U 98067A   26201.51782528  .00016717  00000+0  10270-3 0  9993
2 30016  51.6392 270.0000 0004272  82.5714 355.0000 15.50136786 12344
P0-00 FIXTURE LEO A17
1 30017U 98067A   26201.51782528  .00016717  00000+0  10270-3 0  9994
2 30017  51.6392 275.0000 0004272  82.5714 345.0000 15.50136786 12349
P0-00 FIXTURE LEO A18
1 30018U 98067A   26201.51782528  .00016717  00000+0  10270-3 0  9995
2 30018  51.6392 285.0000 0004272  82.5714 345.0000 15.50136786 12341
P0-00 FIXTURE LEO A19
1 30019U 98067A   26201.51782528  .00016717  00000+0  10270-3 0  9996
2 30019  51.6392 285.0000 0004272  82.5714 340.0000 15.50136786 12347
P0-00 FIXTURE LEO A20
1 30020U 98067A   26201.51782528  .00016717  00000+0  10270-3 0  9998
2 30020  51.6392 270.0000 0004272  82.5714 350.0000 15.50136786 12344
P0-00 FIXTURE LEO A21
1 30021U 98067A   26201.51782528  .00016717  00000+0  10270-3 0  9999
2 30021  51.6392 265.0000 0004272  82.5714  15.0000 15.50136786 12347
P0-00 FIXTURE LEO A22
1 30022U 98067A   26201.51782528  .00016717  00000+0  10270-3 0  9990
2 30022  51.6392 265.0000 0004272  82.5714  10.0000 15.50136786 12343
P0-00 FIXTURE LEO A23
1 30023U 98067A   26201.51782528  .00016717  00000+0  10270-3 0  9991
2 30023  51.6392 290.0000 0004272  82.5714 355.0000 15.50136786 12344
P0-00 FIXTURE LEO A24
1 30024U 98067A   26201.51782528  .00016717  00000+0  10270-3 0  9992
2 30024  51.6392 290.0000 0004272  82.5714   0.0000 15.50136786 12342
P0-00 FIXTURE LEO A25
1 30025U 98067A   26201.51782528  .00016717  00000+0  10270-3 0  9993
2 30025  51.6392 290.0000 0004272  82.5714 350.0000 15.50136786 12341
P0-00 FIXTURE LEO A26
1 30026U 98067A   26201.51782528  .00016717  00000+0  10270-3 0  9994
2 30026  51.6392 290.0000 0004272  82.5714 345.0000 15.50136786 12346
P0-00 FIXTURE LEO A27
1 30027U 98067A   26201.51782528  .00016717  00000+0  10270-3 0  9995
2 30027  51.6392 265.0000 0004272  82.5714   5.0000 15.50136786 12342
P0-00 FIXTURE LEO A28
1 30028U 98067A   26201.51782528  .00016717  00000+0  10270-3 0  9996
2 30028  51.6392 265.0000 0004272  82.5714   0.0000 15.50136786 12348
P0-00 FIXTURE LEO A29
1 30029U 98067A   26201.51782528  .00016717  00000+0  10270-3 0  9997
2 30029  51.6392 265.0000 0004272  82.5714 355.0000 15.50136786 12342
P0-00 FIXTURE LEO A30
1 30030U 98067A   26201.51782528  .00016717  00000+0  10270-3 0  9999
2 30030  51.6392 275.0000 0004272  82.5714  10.0000 15.50136786 12343
P0-00 FIXTURE LEO N01
1 30101U 98067A   26201.51782528  .00016717  00000+0  10270-3 0  9998
2 30101  60.0000 310.0000 0004272  82.5714 290.0000 15.50136786 12342
P0-00 FIXTURE LEO N02
1 30102U 98067A   26201.51782528  .00016717  00000+0  10270-3 0  9999
2 30102  95.0000  10.0000 0004272  82.5714 320.0000 15.50136786 12342
P0-00 FIXTURE LEO N03
1 30103U 98067A   26201.51782528  .00016717  00000+0  10270-3 0  9990
2 30103  85.0000   0.0000 0004272  82.5714 190.0000 15.50136786 12346
P0-00 FIXTURE LEO N04
1 30104U 98067A   26201.51782528  .00016717  00000+0  10270-3 0  9991
2 30104  80.0000 350.0000 0004272  82.5714 300.0000 15.50136786 12343
P0-00 FIXTURE LEO N05
1 30105U 98067A   26201.51782528  .00016717  00000+0  10270-3 0  9992
2 30105  55.0000 260.0000 0004272  82.5714 350.0000 15.50136786 12341
P0-00 FIXTURE LEO N06
1 30106U 98067A   26201.51782528  .00016717  00000+0  10270-3 0  9993
2 30106  55.0000 280.0000 0004272  82.5714 310.0000 15.50136786 12340
P0-00 FIXTURE LEO N07
1 30107U 98067A   26201.51782528  .00016717  00000+0  10270-3 0  9994
2 30107  60.0000 310.0000 0004272  82.5714 320.0000 15.50136786 12342
P0-00 FIXTURE LEO N08
1 30108U 98067A   26201.51782528  .00016717  00000+0  10270-3 0  9995
2 30108  85.0000 190.0000 0004272  82.5714  30.0000 15.50136786 12344
P0-00 FIXTURE LEO N09
1 30109U 98067A   26201.51782528  .00016717  00000+0  10270-3 0  9996
2 30109  75.0000 210.0000 0004272  82.5714 290.0000 15.50136786 12345
P0-00 FIXTURE LEO N10
1 30110U 98067A   26201.51782528  .00016717  00000+0  10270-3 0  9998
2 30110  90.0000  10.0000 0004272  82.5714 150.0000 15.50136786 12347
P0-00 FIXTURE LEO G01
1 30201U 98067A   26201.51782528  .00016717  00000+0  10270-3 0  9999
2 30201  51.6392 245.0000 0004272  82.5714   0.0000 15.50136786 12349
P0-00 FIXTURE LEO G02
1 30202U 98067A   26201.51782528  .00016717  00000+0  10270-3 0  9990
2 30202  51.6392 245.0000 0004272  82.5714   5.0000 15.50136786 12345
P0-00 FIXTURE LEO G03
1 30203U 98067A   26201.51782528  .00016717  00000+0  10270-3 0  9991
2 30203  51.6392 245.0000 0004272  82.5714  10.0000 15.50136786 12342
P0-00 FIXTURE LEO G04
1 30204U 98067A   26201.51782528  .00016717  00000+0  10270-3 0  9992
2 30204  51.6392 245.0000 0004272  82.5714  15.0000 15.50136786 12348
P0-00 FIXTURE LEO G05
1 30205U 98067A   26201.51782528  .00016717  00000+0  10270-3 0  9993
2 30205  51.6392 245.0000 0004272  82.5714  20.0000 15.50136786 12345
P0-00 FIXTURE GEO 01
1 29155U 06018A   26201.45833333 -.00000118  00000+0  00000+0 0  9999
2 29155   0.4907  92.1740 0004215 173.4372  88.0000  1.00271135 12342
P0-00 FIXTURE GEO 02
1 29156U 06018A   26201.45833333 -.00000118  00000+0  00000+0 0  9990
2 29156   0.4907  92.1740 0004215 173.4372  92.0000  1.00271135 12348
P0-00 FIXTURE GEO 03
1 29157U 06018A   26201.45833333 -.00000118  00000+0  00000+0 0  9991
2 29157   0.4907  92.1740 0004215 173.4372  96.0000  1.00271135 12343
P0-00 FIXTURE GEO 04
1 29158U 06018A   26201.45833333 -.00000118  00000+0  00000+0 0  9992
2 29158   0.4907  92.1740 0004215 173.4372 100.0000  1.00271135 12340
P0-00 FIXTURE GEO 05
1 29159U 06018A   26201.45833333 -.00000118  00000+0  00000+0 0  9993
2 29159   0.4907  92.1740 0004215 173.4372 104.0000  1.00271135 12345
P0-00 FIXTURE MEO 01
1 40000U 98067A   26201.51782528  .00000000  00000+0  00000+0 0  9991
2 40000  55.0000 120.0000 0100000  10.0000 200.0000  2.00000000 00005
P0-00 FIXTURE MEO 02
1 40001U 98067A   26201.51782528  .00000000  00000+0  00000+0 0  9992
2 40001  55.0000 300.0000 0100000  10.0000  20.0000  2.00000000 00006
P0-00 FIXTURE HEO 01
1 25485U 98054A   26201.32871319 -.00000201  00000+0  00000+0 0  9997
2 25485  63.1913 191.6259 7215842 264.9061  17.5324  2.00612736 12348
P0-00 FIXTURE HEO 02
1 25486U 98054A   26201.32871319 -.00000201  00000+0  00000+0 0  9998
2 25486  63.1913  10.0000 7215842 264.9061 180.0000  2.00612736 12344
+P0-00 FIXTURE CULL GEO 01
1 29200U 06018A   26201.45833333 -.00000118  00000+0  00000+0 0  9990
2 29200   0.4907  92.1740 0004215 173.4372   0.0000  1.00271135 12347
P0-00 FIXTURE CULL GEO 02
1 29201U 06018A   26201.45833333 -.00000118  00000+0  00000+0 0  9991
2 29201   0.4907  92.1740 0004215 173.4372  10.0000  1.00271135 12349
P0-00 FIXTURE CULL GEO 03
1 29202U 06018A   26201.45833333 -.00000118  00000+0  00000+0 0  9992
2 29202   0.4907  92.1740 0004215 173.4372  20.0000  1.00271135 12341
P0-00 FIXTURE CULL GEO 04
1 29203U 06018A   26201.45833333 -.00000118  00000+0  00000+0 0  9993
2 29203   0.4907  92.1740 0004215 173.4372  30.0000  1.00271135 12343
P0-00 FIXTURE CULL GEO 05
1 29204U 06018A   26201.45833333 -.00000118  00000+0  00000+0 0  9994
2 29204   0.4907  92.1740 0004215 173.4372  40.0000  1.00271135 12345
P0-00 FIXTURE CULL GEO 06
1 29205U 06018A   26201.45833333 -.00000118  00000+0  00000+0 0  9995
2 29205   0.4907  92.1740 0004215 173.4372  50.0000  1.00271135 12347
P0-00 FIXTURE CULL GEO 07
1 29206U 06018A   26201.45833333 -.00000118  00000+0  00000+0 0  9996
2 29206   0.4907  92.1740 0004215 173.4372  60.0000  1.00271135 12349
P0-00 FIXTURE CULL GEO 08
1 29207U 06018A   26201.45833333 -.00000118  00000+0  00000+0 0  9997
2 29207   0.4907  92.1740 0004215 173.4372  70.0000  1.00271135 12341
P0-00 FIXTURE CULL GEO 09
1 29208U 06018A   26201.45833333 -.00000118  00000+0  00000+0 0  9998
2 29208   0.4907  92.1740 0004215 173.4372  80.0000  1.00271135 12343
P0-00 FIXTURE CULL GEO 10
1 29209U 06018A   26201.45833333 -.00000118  00000+0  00000+0 0  9999
2 29209   0.4907  92.1740 0004215 173.4372  90.0000  1.00271135 12345
P0-00 FIXTURE CULL GEO 11
1 29210U 06018A   26201.45833333 -.00000118  00000+0  00000+0 0  9991
2 29210   0.4907  92.1740 0004215 173.4372 100.0000  1.00271135 12349
P0-00 FIXTURE CULL GEO 12
1 29211U 06018A   26201.45833333 -.00000118  00000+0  00000+0 0  9992
2 29211   0.4907  92.1740 0004215 173.4372 110.0000  1.00271135 12341
P0-00 FIXTURE CULL GEO 13
1 29212U 06018A   26201.45833333 -.00000118  00000+0  00000+0 0  9993
2 29212   0.4907  92.1740 0004215 173.4372 120.0000  1.00271135 12343
P0-00 FIXTURE CULL GEO 14
1 29213U 06018A   26201.45833333 -.00000118  00000+0  00000+0 0  9994
2 29213   0.4907  92.1740 0004215 173.4372 130.0000  1.00271135 12345
P0-00 FIXTURE CULL GEO 15
1 29214U 06018A   26201.45833333 -.00000118  00000+0  00000+0 0  9995
2 29214   0.4907  92.1740 0004215 173.4372 140.0000  1.00271135 12347
P0-00 FIXTURE CULL GEO 16
1 29215U 06018A   26201.45833333 -.00000118  00000+0  00000+0 0  9996
2 29215   0.4907  92.1740 0004215 173.4372 150.0000  1.00271135 12349
P0-00 FIXTURE CULL GEO 17
1 29216U 06018A   26201.45833333 -.00000118  00000+0  00000+0 0  9997
2 29216   0.4907  92.1740 0004215 173.4372 160.0000  1.00271135 12341
P0-00 FIXTURE CULL GEO 18
1 29217U 06018A   26201.45833333 -.00000118  00000+0  00000+0 0  9998
2 29217   0.4907  92.1740 0004215 173.4372 170.0000  1.00271135 12343
P0-00 FIXTURE CULL GEO 19
1 29218U 06018A   26201.45833333 -.00000118  00000+0  00000+0 0  9999
2 29218   0.4907  92.1740 0004215 173.4372 180.0000  1.00271135 12345
P0-00 FIXTURE CULL GEO 20
1 29219U 06018A   26201.45833333 -.00000118  00000+0  00000+0 0  9990
2 29219   0.4907  92.1740 0004215 173.4372 190.0000  1.00271135 12347
P0-00 FIXTURE CULL GEO 21
1 29220U 06018A   26201.45833333 -.00000118  00000+0  00000+0 0  9992
2 29220   0.4907  92.1740 0004215 173.4372 200.0000  1.00271135 12341
P0-00 FIXTURE CULL GEO 22
1 29221U 06018A   26201.45833333 -.00000118  00000+0  00000+0 0  9993
2 29221   0.4907  92.1740 0004215 173.4372 210.0000  1.00271135 12343
P0-00 FIXTURE CULL GEO 23
1 29222U 06018A   26201.45833333 -.00000118  00000+0  00000+0 0  9994
2 29222   0.4907  92.1740 0004215 173.4372 220.0000  1.00271135 12345
P0-00 FIXTURE CULL GEO 24
1 29223U 06018A   26201.45833333 -.00000118  00000+0  00000+0 0  9995
2 29223   0.4907  92.1740 0004215 173.4372 230.0000  1.00271135 12347
P0-00 FIXTURE CULL GEO 25
1 29224U 06018A   26201.45833333 -.00000118  00000+0  00000+0 0  9996
2 29224   0.4907  92.1740 0004215 173.4372 240.0000  1.00271135 12349
P0-00 FIXTURE CULL GEO 26
1 29225U 06018A   26201.45833333 -.00000118  00000+0  00000+0 0  9997
2 29225   0.4907  92.1740 0004215 173.4372 250.0000  1.00271135 12341
P0-00 FIXTURE CULL GEO 27
1 29226U 06018A   26201.45833333 -.00000118  00000+0  00000+0 0  9998
2 29226   0.4907  92.1740 0004215 173.4372 260.0000  1.00271135 12343
P0-00 FIXTURE CULL GEO 28
1 29227U 06018A   26201.45833333 -.00000118  00000+0  00000+0 0  9999
2 29227   0.4907  92.1740 0004215 173.4372 270.0000  1.00271135 12345
P0-00 FIXTURE CULL GEO 29
1 29228U 06018A   26201.45833333 -.00000118  00000+0  00000+0 0  9990
2 29228   0.4907  92.1740 0004215 173.4372 280.0000  1.00271135 12347
P0-00 FIXTURE CULL GEO 30
1 29229U 06018A   26201.45833333 -.00000118  00000+0  00000+0 0  9991
2 29229   0.4907  92.1740 0004215 173.4372 290.0000  1.00271135 12349
P0-00 FIXTURE CULL GEO 31
1 29230U 06018A   26201.45833333 -.00000118  00000+0  00000+0 0  9993
2 29230   0.4907  92.1740 0004215 173.4372 300.0000  1.00271135 12343
P0-00 FIXTURE CULL GEO 32
1 29231U 06018A   26201.45833333 -.00000118  00000+0  00000+0 0  9994
2 29231   0.4907  92.1740 0004215 173.4372 310.0000  1.00271135 12345
