P0-00 FIXTURE LEO A01
1 30001U 98067A   26201.51782528  .00016717  00000+0  10270-3 0  9997
2 30001  51.6392 280.0000 0004272  82.5714   5.0000 15.50136786 12341
P0-00 FIXTURE LEO A02
1 30002U 98067A   26201.51782528  .00016717  00000+0  10270-3 0  9998
2 30002  51.6392 275.0000 0004272  82.5714   5.0000 15.50136786 12346
P0-00 FIXTURE LEO A06
1 30006U 98067A   26201.51782528  .00016717  00000+0  10270-3 0  9992
2 30006  51.6392 280.0000 0004272  82.5714 355.0000 15.50136786 12344
P0-00 FIXTURE LEO A07
1 30007U 98067A   26201.51782528  .00016717  00000+0  10270-3 0  9993
2 30007  51.6392 275.0000 0004272  82.5714 355.0000 15.50136786 12349
P0-00 FIXTURE LEO A18
1 30018U 98067A   26201.51782528  .00016717  00000+0  10270-3 0  9995
2 30018  51.6392 285.0000 0004272  82.5714 345.0000 15.50136786 12341
P0-00 FIXTURE LEO A21
1 30021U 98067A   26201.51782528  .00016717  00000+0  10270-3 0  9999
2 30021  51.6392 265.0000 0004272  82.5714  15.0000 15.50136786 12347
P0-00 FIXTURE LEO A22
1 30022U 98067A   26201.51782528  .00016717  00000+0  10270-3 0  9990
2 30022  51.6392 265.0000 0004272  82.5714  10.0000 15.50136786 12343
P0-00 FIXTURE LEO G01
1 30201U 98067A   26201.51782528  .00016717  00000+0  10270-3 0  9999
2 30201  51.6392 245.0000 0004272  82.5714   0.0000 15.50136786 12349
P0-00 FIXTURE LEO G02
1 30202U 98067A   26201.51782528  .00016717  00000+0  10270-3 0  9990
2 30202  51.6392 245.0000 0004272  82.5714   5.0000 15.50136786 12345
P0-00 FIXTURE LEO G05
1 30205U 98067A   26201.51782528  .00016717  00000+0  10270-3 0  9993
2 30205  51.6392 245.0000 0004272  82.5714  20.0000 15.50136786 12345
P0-00 FIXTURE MEO 01
1 40000U 98067A   26201.51782528  .00000000  00000+0  00000+0 0  9991
2 40000  55.0000 120.0000 0100000  10.0000 200.0000  2.00000000 00005
P0-00 FIXTURE MEO 02
1 40001U 98067A   26201.51782528  .00000000  00000+0  00000+0 0  9992
2 40001  55.0000 300.0000 0100000  10.0000  20.0000  2.00000000 00006
P0-00 FIXTURE CULL GEO 01
1 29200U 06018A   26201.45833333 -.00000118  00000+0  00000+0 0  9990
2 29200   0.4907  92.1740 0004215 173.4372   0.0000  1.00271135 12347
